CZ-2C R/B               
1 54039U 22132E   25358.57456779  .00032940  00000+0  47746-3 0  9992
2 54039  97.2947 355.0048 0021205  16.7023 343.4925 15.55527475178670
GSLV R/B                
1 54149U 22138AN  25358.82780594  .00002846  00000+0  24871-3 0  9999
2 54149  87.3822 191.4251 0024044  66.0095 294.3649 14.96189152172731
XRISM                   
1 57800U 23137A   25358.53137821  .00006481  00000+0  37850-3 0  9993
2 57800  31.0030  49.4069 0007627   3.7982 356.2713 15.10453716126416
ACS3                    
1 59588U 24077B   25358.81184472  .00025063  00000+0  21267-1 0  9997
2 59588  97.2602 311.7206 0074671 308.4803  50.9676 13.86030645 83813
SZ-21 MODULE            
1 66515U 25246C   25358.55337456  .00029010  00000+0  31177-3 0  9996
2 66515  41.4769 303.9494 0004724 323.7646  36.2873 15.63097156  6295
