CCSDS_OMM_VERS = 2.0
CREATION_DATE  = 
ORIGINATOR     = 

OBJECT_NAME    = CZ-2C R/B
OBJECT_ID      = 2022-132E
CENTER_NAME    = EARTH
REF_FRAME      = TEME
TIME_SYSTEM    = UTC
MEAN_ELEMENT_THEORY = SGP/SGP4

EPOCH          = 2025-12-24T13:47:22.657056
MEAN_MOTION    = 15.55527475
ECCENTRICITY   = .0021205
INCLINATION    = 97.2947
RA_OF_ASC_NODE = 355.0048
ARG_OF_PERICENTER = 16.7023
MEAN_ANOMALY   = 343.4925

EPHEMERIS_TYPE = 0
CLASSIFICATION_TYPE = U
NORAD_CAT_ID   = 54039
ELEMENT_SET_NO = 999
REV_AT_EPOCH   = 17867
BSTAR          = .47746E-3
MEAN_MOTION_DOT = .3294E-3
MEAN_MOTION_DDOT = 0

CCSDS_OMM_VERS = 2.0
CREATION_DATE  = 
ORIGINATOR     = 

OBJECT_NAME    = GSLV R/B
OBJECT_ID      = 2022-138AN
CENTER_NAME    = EARTH
REF_FRAME      = TEME
TIME_SYSTEM    = UTC
MEAN_ELEMENT_THEORY = SGP/SGP4

EPOCH          = 2025-12-24T19:52:02.433216
MEAN_MOTION    = 14.96189152
ECCENTRICITY   = .0024044
INCLINATION    = 87.3822
RA_OF_ASC_NODE = 191.4251
ARG_OF_PERICENTER = 66.0095
MEAN_ANOMALY   = 294.3649

EPHEMERIS_TYPE = 0
CLASSIFICATION_TYPE = U
NORAD_CAT_ID   = 54149
ELEMENT_SET_NO = 999
REV_AT_EPOCH   = 17273
BSTAR          = .24871E-3
MEAN_MOTION_DOT = .2846E-4
MEAN_MOTION_DDOT = 0

CCSDS_OMM_VERS = 2.0
CREATION_DATE  = 
ORIGINATOR     = 

OBJECT_NAME    = XRISM
OBJECT_ID      = 2023-137A
CENTER_NAME    = EARTH
REF_FRAME      = TEME
TIME_SYSTEM    = UTC
MEAN_ELEMENT_THEORY = SGP/SGP4

EPOCH          = 2025-12-24T12:45:11.077344
MEAN_MOTION    = 15.10453716
ECCENTRICITY   = .0007627
INCLINATION    = 31.0030
RA_OF_ASC_NODE = 49.4069
ARG_OF_PERICENTER = 3.7982
MEAN_ANOMALY   = 356.2713

EPHEMERIS_TYPE = 0
CLASSIFICATION_TYPE = U
NORAD_CAT_ID   = 57800
ELEMENT_SET_NO = 999
REV_AT_EPOCH   = 12641
BSTAR          = .3785E-3
MEAN_MOTION_DOT = .6481E-4
MEAN_MOTION_DDOT = 0

CCSDS_OMM_VERS = 2.0
CREATION_DATE  = 
ORIGINATOR     = 

OBJECT_NAME    = ACS3
OBJECT_ID      = 2024-077B
CENTER_NAME    = EARTH
REF_FRAME      = TEME
TIME_SYSTEM    = UTC
MEAN_ELEMENT_THEORY = SGP/SGP4

EPOCH          = 2025-12-24T19:29:03.383808
MEAN_MOTION    = 13.86030645
ECCENTRICITY   = .0074671
INCLINATION    = 97.2602
RA_OF_ASC_NODE = 311.7206
ARG_OF_PERICENTER = 308.4803
MEAN_ANOMALY   = 50.9676

EPHEMERIS_TYPE = 0
CLASSIFICATION_TYPE = U
NORAD_CAT_ID   = 59588
ELEMENT_SET_NO = 999
REV_AT_EPOCH   = 8381
BSTAR          = .21267E-1
MEAN_MOTION_DOT = .25063E-3
MEAN_MOTION_DDOT = 0

CCSDS_OMM_VERS = 2.0
CREATION_DATE  = 
ORIGINATOR     = 

OBJECT_NAME    = SZ-21 MODULE
OBJECT_ID      = 2025-246C
CENTER_NAME    = EARTH
REF_FRAME      = TEME
TIME_SYSTEM    = UTC
MEAN_ELEMENT_THEORY = SGP/SGP4

EPOCH          = 2025-12-24T13:16:51.561984
MEAN_MOTION    = 15.63097156
ECCENTRICITY   = .0004724
INCLINATION    = 41.4769
RA_OF_ASC_NODE = 303.9494
ARG_OF_PERICENTER = 323.7646
MEAN_ANOMALY   = 36.2873

EPHEMERIS_TYPE = 0
CLASSIFICATION_TYPE = U
NORAD_CAT_ID   = 66515
ELEMENT_SET_NO = 999
REV_AT_EPOCH   = 629
BSTAR          = .31177E-3
MEAN_MOTION_DOT = .2901E-3
MEAN_MOTION_DDOT = 0

